OBJECT_NAME,OBJECT_ID,EPOCH,MEAN_MOTION,ECCENTRICITY,INCLINATION,RA_OF_ASC_NODE,ARG_OF_PERICENTER,MEAN_ANOMALY,EPHEMERIS_TYPE,CLASSIFICATION_TYPE,NORAD_CAT_ID,ELEMENT_SET_NO,REV_AT_EPOCH,BSTAR,MEAN_MOTION_DOT,MEAN_MOTION_DDOT
SL-12 R/B(2),1985-042D,2026-07-11T00:01:11.432928,14.22010413,.0037233,71.1063,187.2032,292.3342,87.2598,0,U,15772,999,13192,.15681E-4,-.13E-6,0
SL-14 R/B,1985-069B,2026-07-11T04:47:49.118784,14.86533499,.0019805,82.5266,268.7838,139.7516,220.5172,0,U,15945,999,19118,.23513E-4,.234E-5,0
SL-16 R/B,1985-097B,2026-07-11T11:53:06.715104,14.16612227,.0005489,71.0010,239.9028,59.0132,41.3676,0,U,16182,999,10476,-.29048E-4,-.106E-5,0
SL-14 R/B,1986-006B,2026-07-11T08:15:56.310336,14.86966515,.0075182,82.5281,143.3807,221.7911,137.7551,0,U,16496,999,16758,.25885E-4,.27E-5,0
COSMOS 1743,1986-034A,2026-07-11T06:26:48.424128,15.69301382,.0005259,82.5278,303.0853,189.0499,171.0669,0,U,16719,999,19956,.33203E-3,.38879E-3,0
SL-14 R/B,1986-046B,2026-07-11T11:11:54.678048,14.85688858,.0023197,82.4836,323.2331,175.1669,184.9776,0,U,16792,999,14478,.26745E-4,.257E-5,0
SL-14 R/B,1986-055B,2026-07-11T12:34:30.923328,14.85738807,.0017338,82.5199,10.2483,283.5916,130.1672,0,U,16882,999,13775,.25283E-4,.244E-5,0
AJISAI (EGS),1986-061A,2026-07-11T10:50:05.000064,12.44516679,.0011101,50.0103,72.7834,242.3379,110.8823,0,U,16908,999,48340,-.25178E-4,-.101E-5,0
SL-14 R/B,1987-024B,2026-07-11T09:18:16.035840,14.86229991,.0017499,82.5294,336.5023,206.7567,153.2749,0,U,17567,999,10650,.26658E-4,.259E-5,0
COSMOS 1833,1987-027A,2026-07-10T19:44:41.933184,14.13065191,.0023938,70.9211,67.1908,15.7836,344.4026,0,U,17589,999,2771,.9279E-4,.126E-5,0
SL-16 R/B,1987-027B,2026-07-11T11:55:45.335136,14.17173234,.0007136,71.0029,15.5995,285.8291,74.2046,0,U,17590,999,3288,-.45926E-4,-.141E-5,0
SL-14 R/B,1987-038B,2026-07-11T10:42:44.957088,14.85459955,.0020722,82.5009,180.2209,113.7273,246.6120,0,U,17912,999,9760,.26589E-4,.255E-5,0
COSMOS 1844,1987-041A,2026-07-11T06:59:21.636960,14.14579051,.0031581,70.8995,133.4639,200.8116,159.1722,0,U,17973,999,2106,.1269E-3,.196E-5,0
SL-14 R/B,1987-055B,2026-07-11T12:51:58.334112,14.85725713,.0019677,82.4974,232.2753,327.8225,32.1789,0,U,18153,999,8832,.2176E-4,.214E-5,0
COSMOS 1867,1987-060A,2026-07-11T12:21:07.443936,14.31518280,.0017065,65.0120,319.9272,282.0333,77.8839,0,U,18187,999,3766,.68654E-5,-.82E-6,0
SL-14 R/B,1988-001B,2026-07-11T04:52:25.743936,14.85625263,.0017796,82.5125,79.1793,184.9960,175.1082,0,U,18749,999,6036,.21585E-4,.212E-5,0
COSMOS 1933,1988-020A,2026-07-11T08:22:02.597088,15.18874588,.0005735,82.5138,128.5070,117.4321,242.7497,0,U,18958,999,6899,.10437E-3,.2207E-4,0
SL-3 R/B,1988-032B,2026-07-11T12:29:03.458688,15.21014468,.002616,97.5267,175.5405,158.0602,202.1760,0,U,19046,999,7092,.10822E-3,.235E-4,0
SL-16 R/B,1988-039B,2026-07-11T08:38:07.831104,14.19631645,.0020801,71.0136,167.0445,155.6640,204.5472,0,U,19120,999,97593,-.64358E-4,-.184E-5,0
COSMOS 1953,1988-050A,2026-07-11T00:27:17.258400,15.30299824,.0011831,82.5064,33.9945,53.3984,306.8343,0,U,19210,999,5663,.15296E-3,.4525E-4,0
SL-8 R/B,1988-053B,2026-07-11T13:20:28.089024,14.38977043,.0019612,74.0460,244.1380,30.8300,76.8760,0,U,19257,999,99441,.46647E-4,.118E-5,0
COSMOS 1975,1988-093A,2026-07-11T11:48:25.920288,15.29633781,.0012569,82.5191,353.2464,93.8606,266.4071,0,U,19573,999,3832,.12899E-3,.3745E-4,0
SL-14 R/B,1988-093B,2026-07-11T05:49:21.844416,14.85758633,.0020361,82.5316,286.0623,353.6820,36.0224,0,U,19574,999,1936,.21401E-4,.211E-5,0
SL-16 R/B,1988-102B,2026-07-11T12:22:05.833056,14.16167618,.0014513,70.9984,250.9504,191.3358,168.7440,0,U,19650,999,94442,-.98757E-4,-.243E-5,0
INTERCOSMOS 24,1989-080A,2026-07-11T11:27:31.819104,12.59690692,.11874,82.6047,23.8351,5.5744,355.7294,0,U,20261,999,68238,.74348E-4,.268E-5,0
SL-14 R/B,1989-080C,2026-07-11T03:53:43.615104,12.50577970,.1228556,82.5938,93.9038,262.5206,83.4990,0,U,20262,999,67558,.14486E-4,.5E-6,0
DELTA 1 R/B,1989-089B,2026-07-11T11:56:32.426592,14.50746420,.0070642,97.0634,20.1654,91.4050,269.5242,0,U,20323,999,91368,.48239E-4,.161E-5,0
ARIANE 40 R/B,1990-005H,2026-07-11T02:06:05.440608,14.39939548,.000998,98.2947,248.9590,186.0758,174.0311,0,U,20443,999,91056,.48335E-4,.11E-5,0
DELTA 2 R/B(1),1990-008B,2026-07-11T00:34:04.552320,15.72953494,.0060888,35.6001,75.7228,336.6786,23.1198,0,U,20453,999,94545,.4942E-3,.79035E-3,0
COSMOS 2058,1990-010A,2026-07-10T18:14:40.542144,15.12143203,.0007801,82.4673,286.1070,268.7589,91.2748,0,U,20465,999,96083,.85929E-4,.1511E-4,0
SL-14 R/B,1990-010B,2026-07-11T07:29:48.266880,14.83661685,.001824,82.5033,151.2884,251.0621,108.8617,0,U,20466,999,94681,.24146E-4,.223E-5,0
